STARLINK-37232          
1 69515U 26133H   26176.83335647 -.01835851  00000+0 -97806-2 0  9996
2 69515  53.1580 278.5894 0001268  56.7277  55.1192 15.82580320  3251
STARLINK-37323          
1 69516U 26133J   26176.83335647 -.00259638  00000+0 -13456-2 0  9998
2 69516  53.1586 278.5799 0001259  93.0713  23.1563 15.80971519  3250
STARLINK-37357          
1 69517U 26133K   26176.83335647 -.01285548  00000+0 -70452-2 0  9998
2 69517  53.1582 278.5539 0001056  65.0477  63.7236 15.81893568  3255
STARLINK-37408          
1 69518U 26133L   26176.83335647 -.01140662  00000+0 -62039-2 0  9998
2 69518  53.1583 278.5391 0000993  51.4562  84.4200 15.81735059  3257
STARLINK-37570          
1 69519U 26133M   26176.83335647 -.01875608  00000+0 -99437-2 0  9996
2 69519  53.1579 278.4799 0001166  50.5785 113.4562 15.82749049  3253
STARLINK-37510          
1 69520U 26133N   26176.83335647 -.00997594  00000+0 -54677-2 0  9993
2 69520  53.1579 278.5126 0001129  35.5294 113.0792 15.81641888  3259
STARLINK-37586          
1 69521U 26133P   26176.83335647 -.01909099  00000+0 -88039-2 0  9997
2 69521  53.1564 278.4248 0001217  59.8458 130.9073 15.85685936  3253
STARLINK-37379          
1 69522U 26133Q   26176.83335647 -.01825422  00000+0 -91460-2 0  9997
2 69522  53.1574 278.4166 0001187  61.6111 132.9468 15.83848155  3305
STARLINK-37429          
1 69523U 26133R   26176.83335647 -.01829004  00000+0 -90497-2 0  9997
2 69523  53.1570 278.3982 0001339  67.2717 136.0680 15.84112468  3303
STARLINK-37352          
1 69524U 26133S   26176.83335647 -.01782989  00000+0 -88140-2 0  9990
2 69524  53.1568 278.3692 0001001  58.3307 158.9231 15.84573072  3308
STARLINK-37490          
1 69525U 26133T   26176.83335647 -.02045767  00000+0 -87089-2 0  9999
2 69525  53.1556 278.2968 0000837  68.0174 184.1313 15.87517231  3307
STARLINK-37438          
1 69526U 26133U   26176.83335647 -.01863175  00000+0 -89027-2 0  9994
2 69526  53.1565 278.3451 0000917  64.6971 164.4699 15.84891062  3304
STARLINK-37484          
1 69527U 26133V   26176.83335647 -.01995577  00000+0 -83876-2 0  9993
2 69527  53.1557 278.2837 0000725  54.7754 203.5675 15.87694167  3308
STARLINK-37523          
1 69528U 26133W   26176.83335647 -.01780947  00000+0 -81565-2 0  9990
2 69528  53.1559 278.2683 0000907  58.0206 207.7829 15.86128005  3300
STARLINK-37369          
1 69529U 26133X   26176.83335647 -.01777262  00000+0 -80124-2 0  9997
2 69529  53.1554 278.2474 0000864  56.8781 218.8774 15.86439430  3309
STARLINK-37670          
1 69530U 26133Y   26176.83335647 -.01773275  00000+0 -77429-2 0  9993
2 69530  53.1553 278.2107 0000867  61.0408 232.5547 15.87074241  3307
STARLINK-37897          
1 69531U 26133Z   26176.83335647 -.01776588  00000+0 -75981-2 0  9995
2 69531  53.1552 278.1819 0000765  62.8302 244.3383 15.87496207  3258
STARLINK-37933          
1 69532U 26133AA  26176.83335647 -.01738933  00000+0 -72340-2 0  9994
2 69532  53.1552 278.1405 0000664  56.9854 269.8927 15.87977812  3256
STARLINK-37890          
1 69533U 26133AB  26176.83335647 -.02018317  00000+0 -75460-2 0  9999
2 69533  53.1554 278.1114 0000762  50.6433 290.2307 15.90028630  3258
STARLINK-37407          
1 69534U 26133AC  26176.83335647 -.01918755  00000+0 -72279-2 0  9999
2 69534  53.1551 278.0726 0000840  52.2513 306.9437 15.90251284  3306
STARLINK-37888          
1 69535U 26133AD  26176.83335647 -.02018001  11130-2 -57998-2 0  9996
2 69535  53.1554 278.0431 0000695  39.6078 333.6775 15.92601857  3259
STARLINK-37889          
1 69536U 26133AE  26176.83335647 -.00882226  00000+0 -44127-2 0  9994
2 69536  53.1582 278.4592 0001095  51.6199 123.7097 15.83283413  3255
2026-134A               
1 69538U 26134A   26176.80750498  .00006576  00000+0  41577-3 0  9990
2 69538  97.7012 246.9430 0014529 239.0415 120.9386 15.09283696  1618
2026-134B               
1 69539U 26134B   26176.80640157  .00006525  00000+0  41084-3 0  9998
2 69539  97.6987 246.9413 0014634 241.7147 118.2606 15.09440490  1600
2026-134C               
1 69540U 26134C   26176.73989288  .00006628  00000+0  41696-3 0  9996
2 69540  97.6994 246.8758 0014070 243.2483 116.7306 15.09471365  1598
2026-134D               
1 69541U 26134D   26176.80577832  .00006569  00000+0  41253-3 0  9996
2 69541  97.7032 246.9474 0015096 242.7043 117.2649 15.09529144  1601
2026-134E               
1 69542U 26134E   26176.80562324  .00006600  00000+0  41426-3 0  9995
2 69542  97.7050 246.9501 0014842 243.3713 116.5996 15.09551392  1609
2026-134F               
1 69543U 26134F   26176.80530105  .00006409  00000+0  40198-3 0  9990
2 69543  97.7004 246.9448 0014129 245.1853 114.7907 15.09597077  1604
2026-134G               
1 69544U 26134G   26176.73843103  .00006595  00000+0  41250-3 0  9994
2 69544  97.7050 246.8844 0014622 246.3314 113.6380 15.09680363  1590
