OBJECT_NAME,OBJECT_ID,EPOCH,MEAN_MOTION,ECCENTRICITY,INCLINATION,RA_OF_ASC_NODE,ARG_OF_PERICENTER,MEAN_ANOMALY,EPHEMERIS_TYPE,CLASSIFICATION_TYPE,NORAD_CAT_ID,ELEMENT_SET_NO,REV_AT_EPOCH,BSTAR,MEAN_MOTION_DOT,MEAN_MOTION_DDOT
STARLINK-37232,2026-133H,2026-06-25T20:00:01.999008,15.82580320,.0001268,53.1580,278.5894,56.7277,55.1192,0,U,69515,999,325,-.97806E-2,-.1835851E-1,0
STARLINK-37323,2026-133J,2026-06-25T20:00:01.999008,15.80971519,.0001259,53.1586,278.5799,93.0713,23.1563,0,U,69516,999,325,-.13456E-2,-.259638E-2,0
STARLINK-37357,2026-133K,2026-06-25T20:00:01.999008,15.81893568,.0001056,53.1582,278.5539,65.0477,63.7236,0,U,69517,999,325,-.70452E-2,-.1285548E-1,0
STARLINK-37408,2026-133L,2026-06-25T20:00:01.999008,15.81735059,.0000993,53.1583,278.5391,51.4562,84.4200,0,U,69518,999,325,-.62039E-2,-.1140662E-1,0
STARLINK-37570,2026-133M,2026-06-25T20:00:01.999008,15.82749049,.0001166,53.1579,278.4799,50.5785,113.4562,0,U,69519,999,325,-.99437E-2,-.1875608E-1,0
STARLINK-37510,2026-133N,2026-06-25T20:00:01.999008,15.81641888,.0001129,53.1579,278.5126,35.5294,113.0792,0,U,69520,999,325,-.54677E-2,-.997594E-2,0
STARLINK-37586,2026-133P,2026-06-25T20:00:01.999008,15.85685936,.0001217,53.1564,278.4248,59.8458,130.9073,0,U,69521,999,325,-.88039E-2,-.1909099E-1,0
STARLINK-37379,2026-133Q,2026-06-25T20:00:01.999008,15.83848155,.0001187,53.1574,278.4166,61.6111,132.9468,0,U,69522,999,330,-.9146E-2,-.1825422E-1,0
STARLINK-37429,2026-133R,2026-06-25T20:00:01.999008,15.84112468,.0001339,53.1570,278.3982,67.2717,136.0680,0,U,69523,999,330,-.90497E-2,-.1829004E-1,0
STARLINK-37352,2026-133S,2026-06-25T20:00:01.999008,15.84573072,.0001001,53.1568,278.3692,58.3307,158.9231,0,U,69524,999,330,-.8814E-2,-.1782989E-1,0
STARLINK-37490,2026-133T,2026-06-25T20:00:01.999008,15.87517231,.0000837,53.1556,278.2968,68.0174,184.1313,0,U,69525,999,330,-.87089E-2,-.2045767E-1,0
STARLINK-37438,2026-133U,2026-06-25T20:00:01.999008,15.84891062,.0000917,53.1565,278.3451,64.6971,164.4699,0,U,69526,999,330,-.89027E-2,-.1863175E-1,0
STARLINK-37484,2026-133V,2026-06-25T20:00:01.999008,15.87694167,.0000725,53.1557,278.2837,54.7754,203.5675,0,U,69527,999,330,-.83876E-2,-.1995577E-1,0
STARLINK-37523,2026-133W,2026-06-25T20:00:01.999008,15.86128005,.0000907,53.1559,278.2683,58.0206,207.7829,0,U,69528,999,330,-.81565E-2,-.1780947E-1,0
STARLINK-37369,2026-133X,2026-06-25T20:00:01.999008,15.86439430,.0000864,53.1554,278.2474,56.8781,218.8774,0,U,69529,999,330,-.80124E-2,-.1777262E-1,0
STARLINK-37670,2026-133Y,2026-06-25T20:00:01.999008,15.87074241,.0000867,53.1553,278.2107,61.0408,232.5547,0,U,69530,999,330,-.77429E-2,-.1773275E-1,0
STARLINK-37897,2026-133Z,2026-06-25T20:00:01.999008,15.87496207,.0000765,53.1552,278.1819,62.8302,244.3383,0,U,69531,999,325,-.75981E-2,-.1776588E-1,0
STARLINK-37933,2026-133AA,2026-06-25T20:00:01.999008,15.87977812,.0000664,53.1552,278.1405,56.9854,269.8927,0,U,69532,999,325,-.7234E-2,-.1738933E-1,0
STARLINK-37890,2026-133AB,2026-06-25T20:00:01.999008,15.90028630,.0000762,53.1554,278.1114,50.6433,290.2307,0,U,69533,999,325,-.7546E-2,-.2018317E-1,0
STARLINK-37407,2026-133AC,2026-06-25T20:00:01.999008,15.90251284,.000084,53.1551,278.0726,52.2513,306.9437,0,U,69534,999,330,-.72279E-2,-.1918755E-1,0
STARLINK-37888,2026-133AD,2026-06-25T20:00:01.999008,15.92601857,.0000695,53.1554,278.0431,39.6078,333.6775,0,U,69535,999,325,-.57998E-2,-.2018001E-1,.1113E-2
STARLINK-37889,2026-133AE,2026-06-25T20:00:01.999008,15.83283413,.0001095,53.1582,278.4592,51.6199,123.7097,0,U,69536,999,325,-.44127E-2,-.882226E-2,0
2026-134A,2026-134A,2026-06-25T19:22:48.430272,15.09283696,.0014529,97.7012,246.9430,239.0415,120.9386,0,U,69538,999,161,.41577E-3,.6576E-4,0
2026-134B,2026-134B,2026-06-25T19:21:13.095648,15.09440490,.0014634,97.6987,246.9413,241.7147,118.2606,0,U,69539,999,160,.41084E-3,.6525E-4,0
2026-134C,2026-134C,2026-06-25T17:45:26.744832,15.09471365,.001407,97.6994,246.8758,243.2483,116.7306,0,U,69540,999,159,.41696E-3,.6628E-4,0
2026-134D,2026-134D,2026-06-25T19:20:19.246848,15.09529144,.0015096,97.7032,246.9474,242.7043,117.2649,0,U,69541,999,160,.41253E-3,.6569E-4,0
2026-134E,2026-134E,2026-06-25T19:20:05.847936,15.09551392,.0014842,97.7050,246.9501,243.3713,116.5996,0,U,69542,999,160,.41426E-3,.66E-4,0
2026-134F,2026-134F,2026-06-25T19:19:38.010720,15.09597077,.0014129,97.7004,246.9448,245.1853,114.7907,0,U,69543,999,160,.40198E-3,.6409E-4,0
2026-134G,2026-134G,2026-06-25T17:43:20.440992,15.09680363,.0014622,97.7050,246.8844,246.3314,113.6380,0,U,69544,999,159,.4125E-3,.6595E-4,0
